CCSDS_OMM_VERS = 2.0
CREATION_DATE  = 
ORIGINATOR     = 

OBJECT_NAME    = COSMOS 2242
OBJECT_ID      = 1993-024A
CENTER_NAME    = EARTH
REF_FRAME      = TEME
TIME_SYSTEM    = UTC
MEAN_ELEMENT_THEORY = SGP/SGP4

EPOCH          = 2026-04-02T04:05:42.512352
MEAN_MOTION    = 14.96656591
ECCENTRICITY   = .0015348
INCLINATION    = 82.5170
RA_OF_ASC_NODE = 244.2503
ARG_OF_PERICENTER = 222.7954
MEAN_ANOMALY   = 137.2074

EPHEMERIS_TYPE = 0
CLASSIFICATION_TYPE = U
NORAD_CAT_ID   = 22626
ELEMENT_SET_NO = 999
REV_AT_EPOCH   = 78390
BSTAR          = .30736461E-3
MEAN_MOTION_DOT = .3538E-4
MEAN_MOTION_DDOT = 0

CCSDS_OMM_VERS = 2.0
CREATION_DATE  = 
ORIGINATOR     = 

OBJECT_NAME    = SL-16 R/B
OBJECT_ID      = 1993-059B
CENTER_NAME    = EARTH
REF_FRAME      = TEME
TIME_SYSTEM    = UTC
MEAN_ELEMENT_THEORY = SGP/SGP4

EPOCH          = 2026-04-02T02:55:05.306016
MEAN_MOTION    = 14.17234539
ECCENTRICITY   = .00171813
INCLINATION    = 70.9909
RA_OF_ASC_NODE = 321.7162
ARG_OF_PERICENTER = 182.0868
MEAN_ANOMALY   = 178.0187

EPHEMERIS_TYPE = 0
CLASSIFICATION_TYPE = U
NORAD_CAT_ID   = 22803
ELEMENT_SET_NO = 999
REV_AT_EPOCH   = 68285
BSTAR          = .2859713E-5
MEAN_MOTION_DOT = -.42E-6
MEAN_MOTION_DDOT = 0

CCSDS_OMM_VERS = 2.0
CREATION_DATE  = 
ORIGINATOR     = 

OBJECT_NAME    = ARIANE 40 R/B
OBJECT_ID      = 1993-061H
CENTER_NAME    = EARTH
REF_FRAME      = TEME
TIME_SYSTEM    = UTC
MEAN_ELEMENT_THEORY = SGP/SGP4

EPOCH          = 2026-04-02T03:52:36.797664
MEAN_MOTION    = 14.32873932
ECCENTRICITY   = .00102399
INCLINATION    = 98.4873
RA_OF_ASC_NODE = 160.5811
ARG_OF_PERICENTER = 208.9210
MEAN_ANOMALY   = 151.1407

EPHEMERIS_TYPE = 0
CLASSIFICATION_TYPE = U
NORAD_CAT_ID   = 22830
ELEMENT_SET_NO = 999
REV_AT_EPOCH   = 69746
BSTAR          = .12778301E-3
MEAN_MOTION_DOT = .306E-5
MEAN_MOTION_DDOT = 0

CCSDS_OMM_VERS = 2.0
CREATION_DATE  = 
ORIGINATOR     = 

OBJECT_NAME    = COSMOS 2278
OBJECT_ID      = 1994-023A
CENTER_NAME    = EARTH
REF_FRAME      = TEME
TIME_SYSTEM    = UTC
MEAN_ELEMENT_THEORY = SGP/SGP4

EPOCH          = 2026-04-02T06:57:47.695104
MEAN_MOTION    = 14.14374769
ECCENTRICITY   = .00092922
INCLINATION    = 71.0507
RA_OF_ASC_NODE = 125.7235
ARG_OF_PERICENTER = 337.9903
MEAN_ANOMALY   = 22.0819

EPHEMERIS_TYPE = 0
CLASSIFICATION_TYPE = U
NORAD_CAT_ID   = 23087
ELEMENT_SET_NO = 999
REV_AT_EPOCH   = 64814
BSTAR          = -.4951386E-5
MEAN_MOTION_DOT = -.57E-6
MEAN_MOTION_DDOT = 0

CCSDS_OMM_VERS = 2.0
CREATION_DATE  = 
ORIGINATOR     = 

OBJECT_NAME    = SL-16 R/B
OBJECT_ID      = 1994-023B
CENTER_NAME    = EARTH
REF_FRAME      = TEME
TIME_SYSTEM    = UTC
MEAN_ELEMENT_THEORY = SGP/SGP4

EPOCH          = 2026-04-02T06:07:37.445664
MEAN_MOTION    = 14.15018536
ECCENTRICITY   = .00055421
INCLINATION    = 71.0029
RA_OF_ASC_NODE = 21.3957
ARG_OF_PERICENTER = 264.6723
MEAN_ANOMALY   = 95.3767

EPHEMERIS_TYPE = 0
CLASSIFICATION_TYPE = U
NORAD_CAT_ID   = 23088
ELEMENT_SET_NO = 999
REV_AT_EPOCH   = 64942
BSTAR          = .15489581E-3
MEAN_MOTION_DOT = .252E-5
MEAN_MOTION_DDOT = 0

CCSDS_OMM_VERS = 2.0
CREATION_DATE  = 
ORIGINATOR     = 

OBJECT_NAME    = SL-16 R/B
OBJECT_ID      = 1994-074B
CENTER_NAME    = EARTH
REF_FRAME      = TEME
TIME_SYSTEM    = UTC
MEAN_ELEMENT_THEORY = SGP/SGP4

EPOCH          = 2026-04-02T07:42:23.452992
MEAN_MOTION    = 14.79435987
ECCENTRICITY   = .00075838
INCLINATION    = 97.7073
RA_OF_ASC_NODE = 122.1783
ARG_OF_PERICENTER = 135.5614
MEAN_ANOMALY   = 235.4836

EPHEMERIS_TYPE = 0
CLASSIFICATION_TYPE = U
NORAD_CAT_ID   = 23343
ELEMENT_SET_NO = 999
REV_AT_EPOCH   = 69074
BSTAR          = .10156109E-3
MEAN_MOTION_DOT = .709E-5
MEAN_MOTION_DDOT = 0

CCSDS_OMM_VERS = 2.0
CREATION_DATE  = 
ORIGINATOR     = 

OBJECT_NAME    = SL-16 R/B
OBJECT_ID      = 1994-077B
CENTER_NAME    = EARTH
REF_FRAME      = TEME
TIME_SYSTEM    = UTC
MEAN_ELEMENT_THEORY = SGP/SGP4

EPOCH          = 2026-04-02T00:22:36.889536
MEAN_MOTION    = 14.15568586
ECCENTRICITY   = .0001707
INCLINATION    = 70.9826
RA_OF_ASC_NODE = 303.4171
ARG_OF_PERICENTER = 193.2014
MEAN_ANOMALY   = 166.9065

EPHEMERIS_TYPE = 0
CLASSIFICATION_TYPE = U
NORAD_CAT_ID   = 23405
ELEMENT_SET_NO = 999
REV_AT_EPOCH   = 61953
BSTAR          = -.68667548E-4
MEAN_MOTION_DOT = -.182E-5
MEAN_MOTION_DDOT = 0

CCSDS_OMM_VERS = 2.0
CREATION_DATE  = 
ORIGINATOR     = 

OBJECT_NAME    = ARIANE 40+ R/B
OBJECT_ID      = 1995-021B
CENTER_NAME    = EARTH
REF_FRAME      = TEME
TIME_SYSTEM    = UTC
MEAN_ELEMENT_THEORY = SGP/SGP4

EPOCH          = 2026-04-02T05:37:57.190080
MEAN_MOTION    = 14.39789935
ECCENTRICITY   = .00078598
INCLINATION    = 98.4456
RA_OF_ASC_NODE = 163.3935
ARG_OF_PERICENTER = 75.8671
MEAN_ANOMALY   = 334.8625

EPHEMERIS_TYPE = 0
CLASSIFICATION_TYPE = U
NORAD_CAT_ID   = 23561
ELEMENT_SET_NO = 999
REV_AT_EPOCH   = 62263
BSTAR          = .14866618E-3
MEAN_MOTION_DOT = .423E-5
MEAN_MOTION_DDOT = 0

CCSDS_OMM_VERS = 2.0
CREATION_DATE  = 
ORIGINATOR     = 

OBJECT_NAME    = SL-16 R/B
OBJECT_ID      = 1995-058B
CENTER_NAME    = EARTH
REF_FRAME      = TEME
TIME_SYSTEM    = UTC
MEAN_ELEMENT_THEORY = SGP/SGP4

EPOCH          = 2026-04-02T07:21:21.970656
MEAN_MOTION    = 14.15497974
ECCENTRICITY   = .00102374
INCLINATION    = 71.0194
RA_OF_ASC_NODE = 130.6747
ARG_OF_PERICENTER = 82.3748
MEAN_ANOMALY   = 277.8537

EPHEMERIS_TYPE = 0
CLASSIFICATION_TYPE = U
NORAD_CAT_ID   = 23705
ELEMENT_SET_NO = 999
REV_AT_EPOCH   = 57119
BSTAR          = -.38572428E-4
MEAN_MOTION_DOT = -.123E-5
MEAN_MOTION_DDOT = 0

CCSDS_OMM_VERS = 2.0
CREATION_DATE  = 
ORIGINATOR     = 

OBJECT_NAME    = SL-16 R/B
OBJECT_ID      = 1996-051B
CENTER_NAME    = EARTH
REF_FRAME      = TEME
TIME_SYSTEM    = UTC
MEAN_ELEMENT_THEORY = SGP/SGP4

EPOCH          = 2026-04-02T07:47:15.408960
MEAN_MOTION    = 14.12422819
ECCENTRICITY   = .00132164
INCLINATION    = 70.7582
RA_OF_ASC_NODE = 125.2147
ARG_OF_PERICENTER = 109.4001
MEAN_ANOMALY   = 250.8548

EPHEMERIS_TYPE = 0
CLASSIFICATION_TYPE = U
NORAD_CAT_ID   = 24298
ELEMENT_SET_NO = 999
REV_AT_EPOCH   = 52498
BSTAR          = .10941717E-3
MEAN_MOTION_DOT = .153E-5
MEAN_MOTION_DDOT = 0

CCSDS_OMM_VERS = 2.0
CREATION_DATE  = 
ORIGINATOR     = 

OBJECT_NAME    = ORBVIEW 2 (SEASTAR)
OBJECT_ID      = 1997-037A
CENTER_NAME    = EARTH
REF_FRAME      = TEME
TIME_SYSTEM    = UTC
MEAN_ELEMENT_THEORY = SGP/SGP4

EPOCH          = 2026-04-02T07:48:47.927808
MEAN_MOTION    = 14.35512172
ECCENTRICITY   = .00021724
INCLINATION    = 98.8607
RA_OF_ASC_NODE = 257.2688
ARG_OF_PERICENTER = 18.6564
MEAN_ANOMALY   = 341.4700

EPHEMERIS_TYPE = 0
CLASSIFICATION_TYPE = U
NORAD_CAT_ID   = 24883
ELEMENT_SET_NO = 999
REV_AT_EPOCH   = 51186
BSTAR          = .15801741E-3
MEAN_MOTION_DOT = .408E-5
MEAN_MOTION_DDOT = 0

CCSDS_OMM_VERS = 2.0
CREATION_DATE  = 
ORIGINATOR     = 

OBJECT_NAME    = SL-16 R/B
OBJECT_ID      = 1998-043G
CENTER_NAME    = EARTH
REF_FRAME      = TEME
TIME_SYSTEM    = UTC
MEAN_ELEMENT_THEORY = SGP/SGP4

EPOCH          = 2026-04-02T02:18:09.534816
MEAN_MOTION    = 14.26055311
ECCENTRICITY   = .00090308
INCLINATION    = 98.8295
RA_OF_ASC_NODE = 45.6310
ARG_OF_PERICENTER = 311.1745
MEAN_ANOMALY   = 48.8655

EPHEMERIS_TYPE = 0
CLASSIFICATION_TYPE = U
NORAD_CAT_ID   = 25400
ELEMENT_SET_NO = 999
REV_AT_EPOCH   = 44232
BSTAR          = .52249273E-4
MEAN_MOTION_DOT = .79E-6
MEAN_MOTION_DDOT = 0

